{
  "features": [
    {
      "geometry": {
        "coordinates": [
          [
            [
              500320.0,
              4200188.0
            ],
            [
              500345.0,
              4200188.0
            ],
            [
              500345.0,
              4200203.0
            ],
            [
              500320.0,
              4200203.0
            ],
            [
              500320.0,
              4200188.0
            ]
          ]
        ],
        "type": "Polygon"
      },
      "properties": {
        "name": "house_a",
        "threshold_m": 0.1
      },
      "type": "Feature"
    },
    {
      "geometry": {
        "coordinates": [
          [
            [
              500355.0,
              4200183.0
            ],
            [
              500380.0,
              4200183.0
            ],
            [
              500380.0,
              4200198.0
            ],
            [
              500355.0,
              4200198.0
            ],
            [
              500355.0,
              4200183.0
            ]
          ]
        ],
        "type": "Polygon"
      },
      "properties": {
        "name": "house_b",
        "threshold_m": 0.1
      },
      "type": "Feature"
    },
    {
      "geometry": {
        "coordinates": [
          [
            [
              500390.0,
              4200185.0
            ],
            [
              500412.0,
              4200185.0
            ],
            [
              500412.0,
              4200200.0
            ],
            [
              500390.0,
              4200200.0
            ],
            [
              500390.0,
              4200185.0
            ]
          ]
        ],
        "type": "Polygon"
      },
      "properties": {
        "name": "house_c",
        "threshold_m": 0.1
      },
      "type": "Feature"
    }
  ],
  "type": "FeatureCollection"
}