{
 "type": "FeatureCollection",
 "features": [
  {
   "type": "Feature",
   "properties": {
    "name": "upper_fields"
   },
   "geometry": {
    "type": "Polygon",
    "coordinates": [
     [
      [
       500200.0,
       4200145.0
      ],
      [
       500470.0,
       4200145.0
      ],
      [
       500470.0,
       4200340.0
      ],
      [
       500200.0,
       4200340.0
      ],
      [
       500200.0,
       4200145.0
      ]
     ],
     [
      [
       500285.0,
       4200160.0
      ],
      [
       500303.0,
       4200160.0
      ],
      [
       500303.0,
       4200172.0
      ],
      [
       500285.0,
       4200172.0
      ],
      [
       500285.0,
       4200160.0
      ]
     ]
    ]
   }
  }
 ]
}