{
 "type": "FeatureCollection",
 "features": [
  {
   "type": "Feature",
   "properties": {
    "name": "house_a",
    "threshold_m": 0.05
   },
   "geometry": {
    "type": "Polygon",
    "coordinates": [
     [
      [
       500285.0,
       4200160.0
      ],
      [
       500303.0,
       4200160.0
      ],
      [
       500303.0,
       4200172.0
      ],
      [
       500285.0,
       4200172.0
      ],
      [
       500285.0,
       4200160.0
      ]
     ]
    ]
   }
  },
  {
   "type": "Feature",
   "properties": {
    "name": "house_b",
    "threshold_m": 0.05
   },
   "geometry": {
    "type": "Polygon",
    "coordinates": [
     [
      [
       500300.0,
       4200128.0
      ],
      [
       500318.0,
       4200128.0
      ],
      [
       500318.0,
       4200140.0
      ],
      [
       500300.0,
       4200140.0
      ],
      [
       500300.0,
       4200128.0
      ]
     ]
    ]
   }
  },
  {
   "type": "Feature",
   "properties": {
    "name": "house_c",
    "threshold_m": 0.05
   },
   "geometry": {
    "type": "Polygon",
    "coordinates": [
     [
      [
       500275.0,
       4200100.0
      ],
      [
       500293.0,
       4200100.0
      ],
      [
       500293.0,
       4200112.0
      ],
      [
       500275.0,
       4200112.0
      ],
      [
       500275.0,
       4200100.0
      ]
     ]
    ]
   }
  },
  {
   "type": "Feature",
   "properties": {
    "name": "house_d",
    "threshold_m": 0.05
   },
   "geometry": {
    "type": "Polygon",
    "coordinates": [
     [
      [
       500295.0,
       4200058.0
      ],
      [
       500313.0,
       4200058.0
      ],
      [
       500313.0,
       4200070.0
      ],
      [
       500295.0,
       4200070.0
      ],
      [
       500295.0,
       4200058.0
      ]
     ]
    ]
   }
  }
 ]
}